ISS OBJECT XW           
1 66910U 98067XW  26049.30438970  .00098080  00000+0  10259-2 0  9990
2 66910  51.6264 163.9525 0002979 350.7388   9.3551 15.63650650 12148
ISS OBJECT XX           
1 66911U 98067XX  26049.30372316  .00150532  00000+0  13490-2 0  9993
2 66911  51.6244 163.1938 0004952 343.5317  16.5518 15.67305716 12149
ISS OBJECT XY           
1 66912U 98067XY  26048.55361185  .00067824  00000+0  81767-3 0  9996
2 66912  51.6291 168.6991 0000932 354.2320   5.8663 15.60143157 12007
ISS OBJECT XZ           
1 67683U 98067XZ  26048.55996253  .00034002  00000+0  59633-3 0  9991
2 67683  51.6311 171.7382 0010438 120.3988 239.8034 15.50177657  1661
GXIBA-1                 
1 67684U 98067YA  26048.55474937  .00059962  00000+0  10040-2 0  9992
2 67684  51.6311 171.7048 0012007 113.2004 247.0252 15.51206196  1660
CORAL                   
1 67685U 98067YB  26048.88125074  .00040088  00000+0  69545-3 0  9998
2 67685  51.6310 170.1343 0012301 117.1284 243.0961 15.50382591  1713
ISS OBJECT YC           
1 67686U 98067YC  26048.55801583  .00042395  00000+0  73145-3 0  9993
2 67686  51.6320 171.7264 0007773  88.8855 271.3025 15.50561623  1663
LEOPARD                 
1 67687U 98067YD  26048.62383860  .00037832  00000+0  66033-3 0  9993
2 67687  51.6322 171.4167 0007889  91.8390 268.3503 15.50286093  1595
ISS OBJECT YE           
1 67688U 98067YE  26048.62283168  .00043336  00000+0  74973-3 0  9992
2 67688  51.6318 171.4087 0007740  89.9843 270.2033 15.50474672  1591
CREW DRAGON 12          
1 67796U 26031A   26049.21532624  .00009407  00000+0  18044-3 0  9992
2 67796  51.6322 168.6154 0010954 110.1068 250.1100 15.48678459   739
